{"type": "FeatureCollection", "features": [ {"type": "Feature", "properties": {"norad_id": 30435, "name": "FENGYUN 1C DEB", "group": "fengyun-1c-debris", "lat": -71.79294849045026, "lon": 118.38806384364575, "alt_km": 1059.5762305879362, "timestamp": "2025-12-06T16:45:42.998391+00:00", "meta": {"OBJECT_NAME": "FENGYUN 1C DEB", "OBJECT_ID": "1999-025AEW", "EPOCH": "2025-12-06T05:44:09.841920", "MEAN_MOTION": 13.79586797, "ECCENTRICITY": 0.02072064, "INCLINATION": 99.0162, "RA_OF_ASC_NODE": 326.8126, "ARG_OF_PERICENTER": 129.4876, "MEAN_ANOMALY": 2.2055, "EPHEMERIS_TYPE": 0, "CLASSIFICATION_TYPE": "U", "NORAD_CAT_ID": 30435, "ELEMENT_SET_NO": 999, "REV_AT_EPOCH": 94070, "BSTAR": 0.0025037449, "MEAN_MOTION_DOT": 2.994e-05, "MEAN_MOTION_DDOT": 0}, "tle": {"line1": "1 30435U 99025AEW 25340.23900280  .00002994  00000+0  25037-2 0  9990", "line2": "2 30435  99.0162 326.8126 0207206 129.4876   2.2055 13.79586797940702"}}, "geometry": {"type": "Point", "coordinates": [118.38806384364575, -71.79294849045026]}}, {"type": "Feature", "properties": {"norad_id": 30436, "name": "FENGYUN 1C DEB", "group": "fengyun-1c-debris", "lat": 79.91069193398265, "lon": 111.37696915896667, "alt_km": 770.949280063297, "timestamp": "2025-12-06T16:45:42.998401+00:00", "meta": {"OBJECT_NAME": "FENGYUN 1C DEB", "OBJECT_ID": "1999-025AEX", "EPOCH": "2025-12-05T16:58:06.212640", "MEAN_MOTION": 14.22196988, "ECCENTRICITY": 0.00968579, "INCLINATION": 98.4263, "RA_OF_ASC_NODE": 234.0146, "ARG_OF_PERICENTER": 154.3496, "MEAN_ANOMALY": 269.1098, "EPHEMERIS_TYPE": 0, "CLASSIFICATION_TYPE": "U", "NORAD_CAT_ID": 30436, "ELEMENT_SET_NO": 999, "REV_AT_EPOCH": 96337, "BSTAR": 0.0035348359, "MEAN_MOTION_DOT": 8.191e-05, "MEAN_MOTION_DDOT": 0}, "tle": {"line1": "1 30436U 99025AEX 25339.70701635  .00008191  00000+0  35348-2 0  9995", "line2": "2 30436  98.4263 234.0146 0096857 154.3496 269.1098 14.22196988963370"}}, "geometry": {"type": "Point", "coordinates": [111.37696915896667, 79.91069193398265]}}, {"type": "Feature", "properties": {"norad_id": 30437, "name": "FENGYUN 1C DEB", "group": "fengyun-1c-debris", "lat": -16.841944369464674, "lon": 176.9896915573438, "alt_km": 604.099450663728, "timestamp": "2025-12-06T16:45:42.998411+00:00", "meta": {"OBJECT_NAME": "FENGYUN 1C DEB", "OBJECT_ID": "1999-025AEY", "EPOCH": "2025-12-05T23:59:55.972896", "MEAN_MOTION": 14.87600162, "ECCENTRICITY": 0.00359132, "INCLINATION": 98.9213, "RA_OF_ASC_NODE": 358.9307, "ARG_OF_PERICENTER": 123.0364, "MEAN_ANOMALY": 295.1609, "EPHEMERIS_TYPE": 0, "CLASSIFICATION_TYPE": "U", "NORAD_CAT_ID": 30437, "ELEMENT_SET_NO": 999, "REV_AT_EPOCH": 99087, "BSTAR": 0.0035299962, "MEAN_MOTION_DOT": 0.00032535, "MEAN_MOTION_DDOT": 0}, "tle": {"line1": "1 30437U 99025AEY 25339.99995339  .00032535  00000+0  35300-2 0  9990", "line2": "2 30437  98.9213 358.9307 0035913 123.0364 295.1609 14.87600162990876"}}, "geometry": {"type": "Point", "coordinates": [176.9896915573438, -16.841944369464674]}}, {"type": "Feature", "properties": {"norad_id": 30438, "name": "FENGYUN 1C DEB", "group": "fengyun-1c-debris", "lat": -68.37708388674417, "lon": 20.923938453200098, "alt_km": 921.3218271259811, "timestamp": "2025-12-06T16:45:42.998421+00:00", "meta": {"OBJECT_NAME": "FENGYUN 1C DEB", "OBJECT_ID": "1999-025AEZ", "EPOCH": "2025-12-05T23:51:09.444384", "MEAN_MOTION": 13.92065776, "ECCENTRICITY": 0.01345015, "INCLINATION": 98.7493, "RA_OF_ASC_NODE": 357.3976, "ARG_OF_PERICENTER": 205.3183, "MEAN_ANOMALY": 154.1346, "EPHEMERIS_TYPE": 0, "CLASSIFICATION_TYPE": "U", "NORAD_CAT_ID": 30438, "ELEMENT_SET_NO": 999, "REV_AT_EPOCH": 95212, "BSTAR": 0.0021385634, "MEAN_MOTION_DOT": 2.903e-05, "MEAN_MOTION_DDOT": 0}, "tle": {"line1": "1 30438U 99025AEZ 25339.99385931  .00002903  00000+0  21386-2 0  9997", "line2": "2 30438  98.7493 357.3976 0134501 205.3183 154.1346 13.92065776952125"}}, "geometry": {"type": "Point", "coordinates": [20.923938453200098, -68.37708388674417]}}, {"type": "Feature", "properties": {"norad_id": 30439, "name": "FENGYUN 1C DEB", "group": "fengyun-1c-debris", "lat": -32.16722623639281, "lon": 167.03194866342864, "alt_km": 891.517184123928, "timestamp": "2025-12-06T16:45:42.998431+00:00", "meta": {"OBJECT_NAME": "FENGYUN 1C DEB", "OBJECT_ID": "1999-025AFA", "EPOCH": "2025-12-06T07:18:59.359680", "MEAN_MOTION": 14.08824429, "ECCENTRICITY": 0.00390418, "INCLINATION": 98.7499, "RA_OF_ASC_NODE": 352.2085, "ARG_OF_PERICENTER": 355.15, "MEAN_ANOMALY": 22.6808, "EPHEMERIS_TYPE": 0, "CLASSIFICATION_TYPE": "U", "NORAD_CAT_ID": 30439, "ELEMENT_SET_NO": 999, "REV_AT_EPOCH": 96701, "BSTAR": 0.00079789306, "MEAN_MOTION_DOT": 1.344e-05, "MEAN_MOTION_DDOT": 0}, "tle": {"line1": "1 30439U 99025AFA 25340.30485370  .00001344  00000+0  79789-3 0  9992", "line2": "2 30439  98.7499 352.2085 0039041 355.1500  22.6808 14.08824429967019"}}, "geometry": {"type": "Point", "coordinates": [167.03194866342864, -32.16722623639281]}}, {"type": "Feature", "properties": {"norad_id": 30441, "name": "FENGYUN 1C DEB", "group": "fengyun-1c-debris", "lat": 3.7240625265337184, "lon": -109.11002223387774, "alt_km": 990.0500315158615, "timestamp": "2025-12-06T16:45:42.998441+00:00", "meta": {"OBJECT_NAME": "FENGYUN 1C DEB", "OBJECT_ID": "1999-025AFC", "EPOCH": "2025-12-06T00:12:08.974944", "MEAN_MOTION": 13.77664897, "ECCENTRICITY": 0.01835886, "INCLINATION": 99.1352, "RA_OF_ASC_NODE": 69.6261, "ARG_OF_PERICENTER": 275.5935, "MEAN_ANOMALY": 82.4306, "EPHEMERIS_TYPE": 0, "CLASSIFICATION_TYPE": "U", "NORAD_CAT_ID": 30441, "ELEMENT_SET_NO": 999, "REV_AT_EPOCH": 94777, "BSTAR": 0.00093518147, "MEAN_MOTION_DOT": 1.014e-05, "MEAN_MOTION_DDOT": 0}, "tle": {"line1": "1 30441U 99025AFC 25340.00843721  .00001014  00000+0  93518-3 0  9990", "line2": "2 30441  99.1352  69.6261 0183588 275.5935  82.4306 13.77664897947777"}}, "geometry": {"type": "Point", "coordinates": [-109.11002223387774, 3.7240625265337184]}}, {"type": "Feature", "properties": {"norad_id": 30442, "name": "FENGYUN 1C DEB", "group": "fengyun-1c-debris", "lat": -20.960261101976275, "lon": -109.2317683509537, "alt_km": 811.2493839429308, "timestamp": "2025-12-06T16:45:42.998451+00:00", "meta": {"OBJECT_NAME": "FENGYUN 1C DEB", "OBJECT_ID": "1999-025AFD", "EPOCH": "2025-12-06T05:43:55.818336", "MEAN_MOTION": 14.2850875, "ECCENTRICITY": 0.00539963, "INCLINATION": 98.8676, "RA_OF_ASC_NODE": 73.7299, "ARG_OF_PERICENTER": 306.7159, "MEAN_ANOMALY": 52.9069, "EPHEMERIS_TYPE": 0, "CLASSIFICATION_TYPE": "U", "NORAD_CAT_ID": 30442, "ELEMENT_SET_NO": 999, "REV_AT_EPOCH": 97069, "BSTAR": 0.0036137751, "MEAN_MOTION_DOT": 9.162e-05, "MEAN_MOTION_DDOT": 0}, "tle": {"line1": "1 30442U 99025AFD 25340.23884049  .00009162  00000+0  36138-2 0  9990", "line2": "2 30442  98.8676  73.7299 0053996 306.7159  52.9069 14.28508750970691"}}, "geometry": {"type": "Point", "coordinates": [-109.2317683509537, -20.960261101976275]}}, {"type": "Feature", "properties": {"norad_id": 30443, "name": "FENGYUN 1C DEB", "group": "fengyun-1c-debris", "lat": -9.525658712751312, "lon": 106.15055219426154, "alt_km": 793.2860670700056, "timestamp": "2025-12-06T16:45:42.998461+00:00", "meta": {"OBJECT_NAME": "FENGYUN 1C DEB", "OBJECT_ID": "1999-025AFE", "EPOCH": "2025-12-05T19:49:26.682528", "MEAN_MOTION": 14.36640788, "ECCENTRICITY": 0.00283479, "INCLINATION": 98.8483, "RA_OF_ASC_NODE": 286.7523, "ARG_OF_PERICENTER": 358.1131, "MEAN_ANOMALY": 1.9943, "EPHEMERIS_TYPE": 0, "CLASSIFICATION_TYPE": "U", "NORAD_CAT_ID": 30443, "ELEMENT_SET_NO": 999, "REV_AT_EPOCH": 97334, "BSTAR": 0.0045821195, "MEAN_MOTION_DOT": 0.00013527, "MEAN_MOTION_DDOT": 0}, "tle": {"line1": "1 30443U 99025AFE 25339.82600327  .00013527  00000+0  45821-2 0  9998", "line2": "2 30443  98.8483 286.7523 0028347 358.1131   1.9943 14.36640788973344"}}, "geometry": {"type": "Point", "coordinates": [106.15055219426154, -9.525658712751312]}}, {"type": "Feature", "properties": {"norad_id": 30445, "name": "FENGYUN 1C DEB", "group": "fengyun-1c-debris", "lat": -81.1582816635212, "lon": 20.66538619398332, "alt_km": 781.3491646106468, "timestamp": "2025-12-06T16:45:42.998471+00:00", "meta": {"OBJECT_NAME": "FENGYUN 1C DEB", "OBJECT_ID": "1999-025AFG", "EPOCH": "2025-12-06T07:13:45.064992", "MEAN_MOTION": 14.48684982, "ECCENTRICITY": 0.01063369, "INCLINATION": 98.8344, "RA_OF_ASC_NODE": 291.3582, "ARG_OF_PERICENTER": 37.5378, "MEAN_ANOMALY": 323.3178, "EPHEMERIS_TYPE": 0, "CLASSIFICATION_TYPE": "U", "NORAD_CAT_ID": 30445, "ELEMENT_SET_NO": 999, "REV_AT_EPOCH": 99091, "BSTAR": 0.0014248098, "MEAN_MOTION_DOT": 5.718e-05, "MEAN_MOTION_DDOT": 0}, "tle": {"line1": "1 30445U 99025AFG 25340.30121603  .00005718  00000+0  14248-2 0  9992", "line2": "2 30445  98.8344 291.3582 0106336  37.5378 323.3178 14.48684982990915"}}, "geometry": {"type": "Point", "coordinates": [20.66538619398332, -81.1582816635212]}}, {"type": "Feature", "properties": {"norad_id": 30446, "name": "FENGYUN 1C DEB", "group": "fengyun-1c-debris", "lat": 40.536262994230114, "lon": -109.4304509010626, "alt_km": 716.8521603910949, "timestamp": "2025-12-06T16:45:42.998481+00:00", "meta": {"OBJECT_NAME": "FENGYUN 1C DEB", "OBJECT_ID": "1999-025AFH", "EPOCH": "2025-12-06T04:29:15.686304", "MEAN_MOTION": 14.44602254, "ECCENTRICITY": 0.0035325, "INCLINATION": 98.6152, "RA_OF_ASC_NODE": 62.602, "ARG_OF_PERICENTER": 117.7014, "MEAN_ANOMALY": 242.7767, "EPHEMERIS_TYPE": 0, "CLASSIFICATION_TYPE": "U", "NORAD_CAT_ID": 30446, "ELEMENT_SET_NO": 999, "REV_AT_EPOCH": 98082, "BSTAR": 0.0029329806, "MEAN_MOTION_DOT": 0.00010196, "MEAN_MOTION_DDOT": 0}, "tle": {"line1": "1 30446U 99025AFH 25340.18698711  .00010196  00000+0  29330-2 0  9992", "line2": "2 30446  98.6152  62.6020 0035325 117.7014 242.7767 14.44602254980829"}}, "geometry": {"type": "Point", "coordinates": [-109.4304509010626, 40.536262994230114]}}]}